ATLAS CENTAUR R/B       
1 06155U 72065B   25323.07388486  .00001422  00000+0  19845-3 0  9994
2 06155  35.0013 233.8200 0033586 161.1907 199.0041 14.77323352824891
SL-8 R/B                
1 08459U 75112B   25323.73580110  .00000323  00000+0  11509-3 0  9998
2 08459  74.0607 221.1681 0016009 335.6020  24.4374 14.38124755616061
SL-3 R/B                
1 10114U 77057B   25323.92201148  .00011748  00000+0  27542-3 0  9998
2 10114  97.5675 126.3758 0007034 327.9704  32.1114 15.42219619651392
SEASAT 1                
1 10967U 78064A   25323.78440986  .00000477  00000+0  17208-3 0  9997
2 10967 108.0078 254.8803 0002214 253.5449 106.5453 14.46024260490624
SL-14 R/B               
1 11267U 79011B   25323.91478580  .00000697  00000+0  66513-4 0  9998
2 11267  82.5254 200.6886 0017591  66.2863 294.0200 14.91731253512415
SL-8 R/B                
1 11574U 79089B   25323.87706232  .00000328  00000+0  10735-3 0  9992
2 11574  74.0679 294.2933 0014782 138.1723 222.0566 14.42261145420270
SL-14 R/B               
1 11672U 80005B   25323.65436458  .00000821  00000+0  80875-4 0  9998
2 11672  82.5163  51.5890 0016148 165.3771 194.7918 14.90750059460090
SL-8 R/B                
1 12139U 81003B   25323.62219472  .00023656  00000+0  64400-3 0  9994
2 12139  82.9339  31.4630 0281985 200.2496 158.7374 15.05927413298084
SL-3 R/B                
1 12465U 81046B   25323.87705724  .00010767  00000+0  27649-3 0  9993
2 12465  81.2345  61.2699 0020387  43.2602 317.0235 15.38953359421529
METEOR PRIRODA          
1 12585U 81065A   25324.04198558  .07015258  26141-5  24778-3 0  9995
2 12585  97.4510  29.8242 0008350 257.8084 102.2282 16.43780911427174
SL-3 R/B                
1 12904U 81103B   25323.88326280  .00007072  00000+0  32823-3 0  9997
2 12904  81.1585 342.1172 0011690 303.2061  56.8048 15.19838273956545
SL-3 R/B                
1 13068U 82013B   25323.88011881  .00004072  00000+0  18240-3 0  9992
2 13068  81.1732 289.3619 0022558 185.6492 174.4489 15.20795616387655
