CCSDS_OMM_VERS = 2.0
CREATION_DATE  = 
ORIGINATOR     = 

OBJECT_NAME    = ATLAS CENTAUR R/B
OBJECT_ID      = 1972-065B
CENTER_NAME    = EARTH
REF_FRAME      = TEME
TIME_SYSTEM    = UTC
MEAN_ELEMENT_THEORY = SGP/SGP4

EPOCH          = 2025-11-19T01:46:23.651904
MEAN_MOTION    = 14.77323352
ECCENTRICITY   = .00335864
INCLINATION    = 35.0013
RA_OF_ASC_NODE = 233.8200
ARG_OF_PERICENTER = 161.1907
MEAN_ANOMALY   = 199.0041

EPHEMERIS_TYPE = 0
CLASSIFICATION_TYPE = U
NORAD_CAT_ID   = 6155
ELEMENT_SET_NO = 999
REV_AT_EPOCH   = 82489
BSTAR          = .19844657E-3
MEAN_MOTION_DOT = .1422E-4
MEAN_MOTION_DDOT = 0

CCSDS_OMM_VERS = 2.0
CREATION_DATE  = 
ORIGINATOR     = 

OBJECT_NAME    = SL-8 R/B
OBJECT_ID      = 1975-112B
CENTER_NAME    = EARTH
REF_FRAME      = TEME
TIME_SYSTEM    = UTC
MEAN_ELEMENT_THEORY = SGP/SGP4

EPOCH          = 2025-11-19T17:39:33.215040
MEAN_MOTION    = 14.38124755
ECCENTRICITY   = .00160094
INCLINATION    = 74.0607
RA_OF_ASC_NODE = 221.1681
ARG_OF_PERICENTER = 335.6020
MEAN_ANOMALY   = 24.4374

EPHEMERIS_TYPE = 0
CLASSIFICATION_TYPE = U
NORAD_CAT_ID   = 8459
ELEMENT_SET_NO = 999
REV_AT_EPOCH   = 61606
BSTAR          = .11509208E-3
MEAN_MOTION_DOT = .323E-5
MEAN_MOTION_DDOT = 0

CCSDS_OMM_VERS = 2.0
CREATION_DATE  = 
ORIGINATOR     = 

OBJECT_NAME    = SL-3 R/B
OBJECT_ID      = 1977-057B
CENTER_NAME    = EARTH
REF_FRAME      = TEME
TIME_SYSTEM    = UTC
MEAN_ELEMENT_THEORY = SGP/SGP4

EPOCH          = 2025-11-19T22:07:41.791872
MEAN_MOTION    = 15.42219619
ECCENTRICITY   = .00070342
INCLINATION    = 97.5675
RA_OF_ASC_NODE = 126.3758
ARG_OF_PERICENTER = 327.9704
MEAN_ANOMALY   = 32.1114

EPHEMERIS_TYPE = 0
CLASSIFICATION_TYPE = U
NORAD_CAT_ID   = 10114
ELEMENT_SET_NO = 999
REV_AT_EPOCH   = 65139
BSTAR          = .27541663E-3
MEAN_MOTION_DOT = .11748E-3
MEAN_MOTION_DDOT = 0

CCSDS_OMM_VERS = 2.0
CREATION_DATE  = 
ORIGINATOR     = 

OBJECT_NAME    = SEASAT 1
OBJECT_ID      = 1978-064A
CENTER_NAME    = EARTH
REF_FRAME      = TEME
TIME_SYSTEM    = UTC
MEAN_ELEMENT_THEORY = SGP/SGP4

EPOCH          = 2025-11-19T18:49:33.011904
MEAN_MOTION    = 14.46024260
ECCENTRICITY   = .00022146
INCLINATION    = 108.0078
RA_OF_ASC_NODE = 254.8803
ARG_OF_PERICENTER = 253.5449
MEAN_ANOMALY   = 106.5453

EPHEMERIS_TYPE = 0
CLASSIFICATION_TYPE = U
NORAD_CAT_ID   = 10967
ELEMENT_SET_NO = 999
REV_AT_EPOCH   = 49062
BSTAR          = .17207658E-3
MEAN_MOTION_DOT = .477E-5
MEAN_MOTION_DDOT = 0

CCSDS_OMM_VERS = 2.0
CREATION_DATE  = 
ORIGINATOR     = 

OBJECT_NAME    = SL-14 R/B
OBJECT_ID      = 1979-011B
CENTER_NAME    = EARTH
REF_FRAME      = TEME
TIME_SYSTEM    = UTC
MEAN_ELEMENT_THEORY = SGP/SGP4

EPOCH          = 2025-11-19T21:57:17.493120
MEAN_MOTION    = 14.91731253
ECCENTRICITY   = .00175911
INCLINATION    = 82.5254
RA_OF_ASC_NODE = 200.6886
ARG_OF_PERICENTER = 66.2863
MEAN_ANOMALY   = 294.0200

EPHEMERIS_TYPE = 0
CLASSIFICATION_TYPE = U
NORAD_CAT_ID   = 11267
ELEMENT_SET_NO = 999
REV_AT_EPOCH   = 51241
BSTAR          = .6651321E-4
MEAN_MOTION_DOT = .697E-5
MEAN_MOTION_DDOT = 0

CCSDS_OMM_VERS = 2.0
CREATION_DATE  = 
ORIGINATOR     = 

OBJECT_NAME    = SL-8 R/B
OBJECT_ID      = 1979-089B
CENTER_NAME    = EARTH
REF_FRAME      = TEME
TIME_SYSTEM    = UTC
MEAN_ELEMENT_THEORY = SGP/SGP4

EPOCH          = 2025-11-19T21:02:58.184448
MEAN_MOTION    = 14.42261145
ECCENTRICITY   = .00147825
INCLINATION    = 74.0679
RA_OF_ASC_NODE = 294.2933
ARG_OF_PERICENTER = 138.1723
MEAN_ANOMALY   = 222.0566

EPHEMERIS_TYPE = 0
CLASSIFICATION_TYPE = U
NORAD_CAT_ID   = 11574
ELEMENT_SET_NO = 999
REV_AT_EPOCH   = 42027
BSTAR          = .10734786E-3
MEAN_MOTION_DOT = .328E-5
MEAN_MOTION_DDOT = 0

CCSDS_OMM_VERS = 2.0
CREATION_DATE  = 
ORIGINATOR     = 

OBJECT_NAME    = SL-14 R/B
OBJECT_ID      = 1980-005B
CENTER_NAME    = EARTH
REF_FRAME      = TEME
TIME_SYSTEM    = UTC
MEAN_ELEMENT_THEORY = SGP/SGP4

EPOCH          = 2025-11-19T15:42:17.099712
MEAN_MOTION    = 14.90750059
ECCENTRICITY   = .00161487
INCLINATION    = 82.5163
RA_OF_ASC_NODE = 51.5890
ARG_OF_PERICENTER = 165.3771
MEAN_ANOMALY   = 194.7918

EPHEMERIS_TYPE = 0
CLASSIFICATION_TYPE = U
NORAD_CAT_ID   = 11672
ELEMENT_SET_NO = 999
REV_AT_EPOCH   = 46009
BSTAR          = .80875056E-4
MEAN_MOTION_DOT = .821E-5
MEAN_MOTION_DDOT = 0

CCSDS_OMM_VERS = 2.0
CREATION_DATE  = 
ORIGINATOR     = 

OBJECT_NAME    = SL-8 R/B
OBJECT_ID      = 1981-003B
CENTER_NAME    = EARTH
REF_FRAME      = TEME
TIME_SYSTEM    = UTC
MEAN_ELEMENT_THEORY = SGP/SGP4

EPOCH          = 2025-11-19T14:55:57.623808
MEAN_MOTION    = 15.05927413
ECCENTRICITY   = .0281985
INCLINATION    = 82.9339
RA_OF_ASC_NODE = 31.4630
ARG_OF_PERICENTER = 200.2496
MEAN_ANOMALY   = 158.7374

EPHEMERIS_TYPE = 0
CLASSIFICATION_TYPE = U
NORAD_CAT_ID   = 12139
ELEMENT_SET_NO = 999
REV_AT_EPOCH   = 29808
BSTAR          = .644E-3
MEAN_MOTION_DOT = .23656E-3
MEAN_MOTION_DDOT = 0

CCSDS_OMM_VERS = 2.0
CREATION_DATE  = 
ORIGINATOR     = 

OBJECT_NAME    = SL-3 R/B
OBJECT_ID      = 1981-046B
CENTER_NAME    = EARTH
REF_FRAME      = TEME
TIME_SYSTEM    = UTC
MEAN_ELEMENT_THEORY = SGP/SGP4

EPOCH          = 2025-11-19T21:02:57.745536
MEAN_MOTION    = 15.38953359
ECCENTRICITY   = .0020387
INCLINATION    = 81.2345
RA_OF_ASC_NODE = 61.2699
ARG_OF_PERICENTER = 43.2602
MEAN_ANOMALY   = 317.0235

EPHEMERIS_TYPE = 0
CLASSIFICATION_TYPE = U
NORAD_CAT_ID   = 12465
ELEMENT_SET_NO = 999
REV_AT_EPOCH   = 42152
BSTAR          = .27649051E-3
MEAN_MOTION_DOT = .10767E-3
MEAN_MOTION_DDOT = 0

CCSDS_OMM_VERS = 2.0
CREATION_DATE  = 
ORIGINATOR     = 

OBJECT_NAME    = METEOR PRIRODA
OBJECT_ID      = 1981-065A
CENTER_NAME    = EARTH
REF_FRAME      = TEME
TIME_SYSTEM    = UTC
MEAN_ELEMENT_THEORY = SGP/SGP4

EPOCH          = 2025-11-20T01:00:27.554112
MEAN_MOTION    = 16.43780911
ECCENTRICITY   = .000835
INCLINATION    = 97.4510
RA_OF_ASC_NODE = 29.8242
ARG_OF_PERICENTER = 257.8084
MEAN_ANOMALY   = 102.2282

EPHEMERIS_TYPE = 0
CLASSIFICATION_TYPE = U
NORAD_CAT_ID   = 12585
ELEMENT_SET_NO = 999
REV_AT_EPOCH   = 42717
BSTAR          = .24778E-3
MEAN_MOTION_DOT = .7015258E-1
MEAN_MOTION_DDOT = .26141E-5

CCSDS_OMM_VERS = 2.0
CREATION_DATE  = 
ORIGINATOR     = 

OBJECT_NAME    = SL-3 R/B
OBJECT_ID      = 1981-103B
CENTER_NAME    = EARTH
REF_FRAME      = TEME
TIME_SYSTEM    = UTC
MEAN_ELEMENT_THEORY = SGP/SGP4

EPOCH          = 2025-11-19T21:11:53.905920
MEAN_MOTION    = 15.19838273
ECCENTRICITY   = .00116905
INCLINATION    = 81.1585
RA_OF_ASC_NODE = 342.1172
ARG_OF_PERICENTER = 303.2061
MEAN_ANOMALY   = 56.8048

EPHEMERIS_TYPE = 0
CLASSIFICATION_TYPE = U
NORAD_CAT_ID   = 12904
ELEMENT_SET_NO = 999
REV_AT_EPOCH   = 95654
BSTAR          = .32822608E-3
MEAN_MOTION_DOT = .7072E-4
MEAN_MOTION_DDOT = 0

CCSDS_OMM_VERS = 2.0
CREATION_DATE  = 
ORIGINATOR     = 

OBJECT_NAME    = SL-3 R/B
OBJECT_ID      = 1982-013B
CENTER_NAME    = EARTH
REF_FRAME      = TEME
TIME_SYSTEM    = UTC
MEAN_ELEMENT_THEORY = SGP/SGP4

EPOCH          = 2025-11-19T21:07:22.265184
MEAN_MOTION    = 15.20795616
ECCENTRICITY   = .00225585
INCLINATION    = 81.1732
RA_OF_ASC_NODE = 289.3619
ARG_OF_PERICENTER = 185.6492
MEAN_ANOMALY   = 174.4489

EPHEMERIS_TYPE = 0
CLASSIFICATION_TYPE = U
NORAD_CAT_ID   = 13068
ELEMENT_SET_NO = 999
REV_AT_EPOCH   = 38765
BSTAR          = .18239704E-3
MEAN_MOTION_DOT = .4072E-4
MEAN_MOTION_DDOT = 0

